APRIZESAT 2             
1 28366U 04025A   26063.91351249  .00000440  00000+0  14962-3 0  9999
2 28366  98.0903 235.8496 0105182 204.2827 155.3385 14.37983936136659
SAUDICOMSAT 1           
1 28369U 04025D   26063.51870725  .00000726  00000+0  17752-3 0  9990
2 28369  98.5809  70.8137 0031880 346.3218  13.7111 14.55381828148903
SAUDICOMSAT 2           
1 28370U 04025E   26063.50880015  .00000458  00000+0  12884-3 0  9997
2 28370  98.6685  72.7795 0054937 215.7275 144.0237 14.49904473144935
APRIZESAT 1             
1 28372U 04025G   26063.94596986  .00000388  00000+0  10755-3 0  9995
2 28372  98.6344  71.8174 0045781 111.6572 248.9507 14.51710421146781
NANOSAT-1               
1 28493U 04049B   26064.32579170  .00002030  00000+0  27626-3 0  9995
2 28493  98.2090 198.5659 0002829 264.3746  95.7142 14.79904708140082
SAUDICOMSAT 7           
1 31119U 07012C   26063.96138804  .00000884  00000+0  16731-3 0  9991
2 31119  98.3672  36.0330 0056163 161.8415 198.4811 14.65961418  7165
SAUDICOMSAT 6           
1 31121U 07012E   26064.16495640  .00001089  00000+0  21806-3 0  9998
2 31121  98.3982  29.8270 0070745 291.1550  68.2101 14.62421624  4984
SAUDICOMSAT 5           
1 31124U 07012H   26063.46618165  .00001344  00000+0  23957-3 0  9995
2 31124  98.3383  36.2960 0048849  94.9255 265.7529 14.67990535  8238
SAUDICOMSAT 3           
1 31125U 07012J   26064.15122899  .00001626  00000+0  27355-3 0  9996
2 31125  98.3041  37.5539 0039870  22.8040 337.4925 14.70509820  9530
SAUDICOMSAT 4           
1 31127U 07012L   26063.95791015  .00000868  00000+0  16955-3 0  9998
2 31127  98.3875  34.4807 0062596 223.2512 136.3766 14.64369682  6037
APRIZESAT 4             
1 35684U 09041D   26064.20382258  .00001209  00000+0  15110-3 0  9990
2 35684  98.1494 137.4339 0042234 299.6843  60.0169 14.83698793895944
APRIZESAT 3             
1 35686U 09041F   26063.96200473  .00003030  00000+0  26617-3 0  9990
2 35686  98.1891 212.3098 0063219  52.2024 308.4897 14.95878423900792
S-NET D                 
1 43186U 18014G   26064.25096577  .00007669  00000+0  40731-3 0  9990
2 43186  97.5444 329.7293 0009319  29.5512 330.6245 15.15557710443010
S-NET B                 
1 43187U 18014H   26064.19441715  .00008049  00000+0  42759-3 0  9997
2 43187  97.5452 329.6564 0009834  25.0934 335.0775 15.15529783443006
S-NET A                 
1 43188U 18014J   26064.25033220  .00007679  00000+0  40775-3 0  9997
2 43188  97.5459 329.9020 0009768  25.4887 334.6825 15.15564418443017
S-NET C                 
1 43189U 18014K   26064.19774105  .00008093  00000+0  42989-3 0  9995
2 43189  97.5477 329.9083 0010918  17.4677 342.6929 15.15522282441558
SALSAT                  
1 46495U 20068K   26064.22035157  .00011798  00000+0  43320-3 0  9997
2 46495  97.8851  61.0911 0008590 315.6003  44.4545 15.28075718299477
