[{"OBJECT_NAME":"APRIZESAT 2","OBJECT_ID":"2004-025A","EPOCH":"2026-03-04T21:55:27.479136","MEAN_MOTION":14.37983936,"ECCENTRICITY":0.01051823,"INCLINATION":98.0903,"RA_OF_ASC_NODE":235.8496,"ARG_OF_PERICENTER":204.2827,"MEAN_ANOMALY":155.3385,"EPHEMERIS_TYPE":0,"CLASSIFICATION_TYPE":"U","NORAD_CAT_ID":28366,"ELEMENT_SET_NO":999,"REV_AT_EPOCH":13665,"BSTAR":0.00014962237,"MEAN_MOTION_DOT":4.4e-6,"MEAN_MOTION_DDOT":0},{"OBJECT_NAME":"SAUDICOMSAT 1","OBJECT_ID":"2004-025D","EPOCH":"2026-03-04T12:26:56.306400","MEAN_MOTION":14.55381828,"ECCENTRICITY":0.003188,"INCLINATION":98.5809,"RA_OF_ASC_NODE":70.8137,"ARG_OF_PERICENTER":346.3218,"MEAN_ANOMALY":13.7111,"EPHEMERIS_TYPE":0,"CLASSIFICATION_TYPE":"U","NORAD_CAT_ID":28369,"ELEMENT_SET_NO":999,"REV_AT_EPOCH":14890,"BSTAR":0.00017752,"MEAN_MOTION_DOT":7.26e-6,"MEAN_MOTION_DDOT":0},{"OBJECT_NAME":"SAUDICOMSAT 2","OBJECT_ID":"2004-025E","EPOCH":"2026-03-04T12:12:40.332960","MEAN_MOTION":14.49904473,"ECCENTRICITY":0.0054937,"INCLINATION":98.6685,"RA_OF_ASC_NODE":72.7795,"ARG_OF_PERICENTER":215.7275,"MEAN_ANOMALY":144.0237,"EPHEMERIS_TYPE":0,"CLASSIFICATION_TYPE":"U","NORAD_CAT_ID":28370,"ELEMENT_SET_NO":999,"REV_AT_EPOCH":14493,"BSTAR":0.00012884,"MEAN_MOTION_DOT":4.58e-6,"MEAN_MOTION_DDOT":0},{"OBJECT_NAME":"APRIZESAT 1","OBJECT_ID":"2004-025G","EPOCH":"2026-03-04T22:42:11.795904","MEAN_MOTION":14.51710421,"ECCENTRICITY":0.00457814,"INCLINATION":98.6344,"RA_OF_ASC_NODE":71.8174,"ARG_OF_PERICENTER":111.6572,"MEAN_ANOMALY":248.9507,"EPHEMERIS_TYPE":0,"CLASSIFICATION_TYPE":"U","NORAD_CAT_ID":28372,"ELEMENT_SET_NO":999,"REV_AT_EPOCH":14678,"BSTAR":0.00010755178,"MEAN_MOTION_DOT":3.88e-6,"MEAN_MOTION_DDOT":0},{"OBJECT_NAME":"NANOSAT-1","OBJECT_ID":"2004-049B","EPOCH":"2026-03-05T07:49:08.402880","MEAN_MOTION":14.79904708,"ECCENTRICITY":0.00028294,"INCLINATION":98.209,"RA_OF_ASC_NODE":198.5659,"ARG_OF_PERICENTER":264.3746,"MEAN_ANOMALY":95.7142,"EPHEMERIS_TYPE":0,"CLASSIFICATION_TYPE":"U","NORAD_CAT_ID":28493,"ELEMENT_SET_NO":999,"REV_AT_EPOCH":14008,"BSTAR":0.00027626011,"MEAN_MOTION_DOT":2.03e-5,"MEAN_MOTION_DDOT":0},{"OBJECT_NAME":"SAUDICOMSAT 7","OBJECT_ID":"2007-012C","EPOCH":"2026-03-04T23:04:23.926656","MEAN_MOTION":14.65961418,"ECCENTRICITY":0.0056163,"INCLINATION":98.3672,"RA_OF_ASC_NODE":36.033,"ARG_OF_PERICENTER":161.8415,"MEAN_ANOMALY":198.4811,"EPHEMERIS_TYPE":0,"CLASSIFICATION_TYPE":"U","NORAD_CAT_ID":31119,"ELEMENT_SET_NO":999,"REV_AT_EPOCH":716,"BSTAR":0.00016731163,"MEAN_MOTION_DOT":8.84e-6,"MEAN_MOTION_DDOT":0},{"OBJECT_NAME":"SAUDICOMSAT 6","OBJECT_ID":"2007-012E","EPOCH":"2026-03-05T03:57:32.232960","MEAN_MOTION":14.62421624,"ECCENTRICITY":0.00707452,"INCLINATION":98.3982,"RA_OF_ASC_NODE":29.827,"ARG_OF_PERICENTER":291.155,"MEAN_ANOMALY":68.2101,"EPHEMERIS_TYPE":0,"CLASSIFICATION_TYPE":"U","NORAD_CAT_ID":31121,"ELEMENT_SET_NO":999,"REV_AT_EPOCH":498,"BSTAR":0.00021805647,"MEAN_MOTION_DOT":1.089e-5,"MEAN_MOTION_DDOT":0},{"OBJECT_NAME":"SAUDICOMSAT 5","OBJECT_ID":"2007-012H","EPOCH":"2026-03-04T11:11:18.094560","MEAN_MOTION":14.67990535,"ECCENTRICITY":0.00488491,"INCLINATION":98.3383,"RA_OF_ASC_NODE":36.296,"ARG_OF_PERICENTER":94.9255,"MEAN_ANOMALY":265.7529,"EPHEMERIS_TYPE":0,"CLASSIFICATION_TYPE":"U","NORAD_CAT_ID":31124,"ELEMENT_SET_NO":999,"REV_AT_EPOCH":823,"BSTAR":0.00023957305,"MEAN_MOTION_DOT":1.344e-5,"MEAN_MOTION_DDOT":0},{"OBJECT_NAME":"SAUDICOMSAT 3","OBJECT_ID":"2007-012J","EPOCH":"2026-03-05T03:37:46.184736","MEAN_MOTION":14.7050982,"ECCENTRICITY":0.00398701,"INCLINATION":98.3041,"RA_OF_ASC_NODE":37.5539,"ARG_OF_PERICENTER":22.804,"MEAN_ANOMALY":337.4925,"EPHEMERIS_TYPE":0,"CLASSIFICATION_TYPE":"U","NORAD_CAT_ID":31125,"ELEMENT_SET_NO":999,"REV_AT_EPOCH":953,"BSTAR":0.0002735533,"MEAN_MOTION_DOT":1.626e-5,"MEAN_MOTION_DDOT":0},{"OBJECT_NAME":"SAUDICOMSAT 4","OBJECT_ID":"2007-012L","EPOCH":"2026-03-04T22:59:23.436960","MEAN_MOTION":14.64369682,"ECCENTRICITY":0.00625968,"INCLINATION":98.3875,"RA_OF_ASC_NODE":34.4807,"ARG_OF_PERICENTER":223.2512,"MEAN_ANOMALY":136.3766,"EPHEMERIS_TYPE":0,"CLASSIFICATION_TYPE":"U","NORAD_CAT_ID":31127,"ELEMENT_SET_NO":999,"REV_AT_EPOCH":603,"BSTAR":0.0001695523,"MEAN_MOTION_DOT":8.68e-6,"MEAN_MOTION_DDOT":0},{"OBJECT_NAME":"APRIZESAT 4","OBJECT_ID":"2009-041D","EPOCH":"2026-03-05T04:53:30.270912","MEAN_MOTION":14.83698793,"ECCENTRICITY":0.00422344,"INCLINATION":98.1494,"RA_OF_ASC_NODE":137.4339,"ARG_OF_PERICENTER":299.6843,"MEAN_ANOMALY":60.0169,"EPHEMERIS_TYPE":0,"CLASSIFICATION_TYPE":"U","NORAD_CAT_ID":35684,"ELEMENT_SET_NO":999,"REV_AT_EPOCH":89594,"BSTAR":0.00015110476,"MEAN_MOTION_DOT":1.209e-5,"MEAN_MOTION_DDOT":0},{"OBJECT_NAME":"APRIZESAT 3","OBJECT_ID":"2009-041F","EPOCH":"2026-03-04T23:05:17.208672","MEAN_MOTION":14.95878423,"ECCENTRICITY":0.00632193,"INCLINATION":98.1891,"RA_OF_ASC_NODE":212.3098,"ARG_OF_PERICENTER":52.2024,"MEAN_ANOMALY":308.4897,"EPHEMERIS_TYPE":0,"CLASSIFICATION_TYPE":"U","NORAD_CAT_ID":35686,"ELEMENT_SET_NO":999,"REV_AT_EPOCH":90079,"BSTAR":0.00026617496,"MEAN_MOTION_DOT":3.03e-5,"MEAN_MOTION_DDOT":0},{"OBJECT_NAME":"S-NET D","OBJECT_ID":"2018-014G","EPOCH":"2026-03-05T06:01:23.442528","MEAN_MOTION":15.1555771,"ECCENTRICITY":0.00093197,"INCLINATION":97.5444,"RA_OF_ASC_NODE":329.7293,"ARG_OF_PERICENTER":29.5512,"MEAN_ANOMALY":330.6245,"EPHEMERIS_TYPE":0,"CLASSIFICATION_TYPE":"U","NORAD_CAT_ID":43186,"ELEMENT_SET_NO":999,"REV_AT_EPOCH":44301,"BSTAR":0.00040730861,"MEAN_MOTION_DOT":7.669e-5,"MEAN_MOTION_DDOT":0},{"OBJECT_NAME":"S-NET B","OBJECT_ID":"2018-014H","EPOCH":"2026-03-05T04:39:57.641760","MEAN_MOTION":15.15529783,"ECCENTRICITY":0.00098343,"INCLINATION":97.5452,"RA_OF_ASC_NODE":329.6564,"ARG_OF_PERICENTER":25.0934,"MEAN_ANOMALY":335.0775,"EPHEMERIS_TYPE":0,"CLASSIFICATION_TYPE":"U","NORAD_CAT_ID":43187,"ELEMENT_SET_NO":999,"REV_AT_EPOCH":44300,"BSTAR":0.00042758589,"MEAN_MOTION_DOT":8.049e-5,"MEAN_MOTION_DDOT":0},{"OBJECT_NAME":"S-NET A","OBJECT_ID":"2018-014J","EPOCH":"2026-03-05T06:00:28.702080","MEAN_MOTION":15.15564418,"ECCENTRICITY":0.00097685,"INCLINATION":97.5459,"RA_OF_ASC_NODE":329.902,"ARG_OF_PERICENTER":25.4887,"MEAN_ANOMALY":334.6825,"EPHEMERIS_TYPE":0,"CLASSIFICATION_TYPE":"U","NORAD_CAT_ID":43188,"ELEMENT_SET_NO":999,"REV_AT_EPOCH":44301,"BSTAR":0.0004077481,"MEAN_MOTION_DOT":7.679e-5,"MEAN_MOTION_DDOT":0},{"OBJECT_NAME":"S-NET C","OBJECT_ID":"2018-014K","EPOCH":"2026-03-05T04:44:44.826720","MEAN_MOTION":15.15522282,"ECCENTRICITY":0.00109182,"INCLINATION":97.5477,"RA_OF_ASC_NODE":329.9083,"ARG_OF_PERICENTER":17.4677,"MEAN_ANOMALY":342.6929,"EPHEMERIS_TYPE":0,"CLASSIFICATION_TYPE":"U","NORAD_CAT_ID":43189,"ELEMENT_SET_NO":999,"REV_AT_EPOCH":44155,"BSTAR":0.00042989156,"MEAN_MOTION_DOT":8.093e-5,"MEAN_MOTION_DDOT":0},{"OBJECT_NAME":"SALSAT","OBJECT_ID":"2020-068K","EPOCH":"2026-03-05T05:17:18.375648","MEAN_MOTION":15.28075718,"ECCENTRICITY":0.00085909,"INCLINATION":97.8851,"RA_OF_ASC_NODE":61.0911,"ARG_OF_PERICENTER":315.6003,"MEAN_ANOMALY":44.4545,"EPHEMERIS_TYPE":0,"CLASSIFICATION_TYPE":"U","NORAD_CAT_ID":46495,"ELEMENT_SET_NO":999,"REV_AT_EPOCH":29947,"BSTAR":0.00043320384,"MEAN_MOTION_DOT":0.00011798,"MEAN_MOTION_DDOT":0}]
